{"type": "FeatureCollection", "features": [ {"type": "Feature", "properties": {"norad_id": 31752, "name": "FENGYUN 1C DEB", "group": "fengyun-1c-debris", "lat": 42.359090980479166, "lon": 61.89984659402255, "alt_km": 948.0208462572164, "timestamp": "2025-12-23T16:57:12.636765+00:00", "meta": {"OBJECT_NAME": "FENGYUN 1C DEB", "OBJECT_ID": "1999-025CFB", "EPOCH": "2025-12-18T10:55:16.632768", "MEAN_MOTION": 13.93070684, "ECCENTRICITY": 0.03557691, "INCLINATION": 98.9786, "RA_OF_ASC_NODE": 65.0821, "ARG_OF_PERICENTER": 317.9795, "MEAN_ANOMALY": 39.4568, "EPHEMERIS_TYPE": 0, "CLASSIFICATION_TYPE": "U", "NORAD_CAT_ID": 31752, "ELEMENT_SET_NO": 999, "REV_AT_EPOCH": 93670, "BSTAR": 0.0010716417, "MEAN_MOTION_DOT": 2.302e-05, "MEAN_MOTION_DDOT": 0}, "tle": {"line1": "1 31752U 99025CFB 25352.45505362  .00002302  00000+0  10716-2 0  9993", "line2": "2 31752  98.9786  65.0821 0355769 317.9795  39.4568 13.93070684936706"}}, "geometry": {"type": "Point", "coordinates": [61.89984659402255, 42.359090980479166]}}, {"type": "Feature", "properties": {"norad_id": 31753, "name": "FENGYUN 1C DEB", "group": "fengyun-1c-debris", "lat": -53.68005310949757, "lon": -161.38868952168846, "alt_km": 839.6087454847147, "timestamp": "2025-12-23T16:57:12.636775+00:00", "meta": {"OBJECT_NAME": "FENGYUN 1C DEB", "OBJECT_ID": "1999-025CFC", "EPOCH": "2025-12-22T01:04:36.563232", "MEAN_MOTION": 14.18649838, "ECCENTRICITY": 0.01595549, "INCLINATION": 98.631, "RA_OF_ASC_NODE": 28.9179, "ARG_OF_PERICENTER": 147.0236, "MEAN_ANOMALY": 244.783, "EPHEMERIS_TYPE": 0, "CLASSIFICATION_TYPE": "U", "NORAD_CAT_ID": 31753, "ELEMENT_SET_NO": 999, "REV_AT_EPOCH": 96151, "BSTAR": 0.00025158274, "MEAN_MOTION_DOT": 5.5e-06, "MEAN_MOTION_DDOT": 0}, "tle": {"line1": "1 31753U 99025CFC 25356.04486763  .00000550  00000+0  25158-3 0  9996", "line2": "2 31753  98.6310  28.9179 0159554 147.0236 244.7830 14.18649838961518"}}, "geometry": {"type": "Point", "coordinates": [-161.38868952168846, -53.68005310949757]}}, {"type": "Feature", "properties": {"norad_id": 31754, "name": "FENGYUN 1C DEB", "group": "fengyun-1c-debris", "lat": 1.6504382990463176, "lon": 143.9093460939638, "alt_km": 718.4791930624442, "timestamp": "2025-12-23T16:57:12.636785+00:00", "meta": {"OBJECT_NAME": "FENGYUN 1C DEB", "OBJECT_ID": "1999-025CFD", "EPOCH": "2025-12-23T04:28:29.077824", "MEAN_MOTION": 14.42319169, "ECCENTRICITY": 0.00495202, "INCLINATION": 99.0415, "RA_OF_ASC_NODE": 323.0958, "ARG_OF_PERICENTER": 186.4072, "MEAN_ANOMALY": 173.6488, "EPHEMERIS_TYPE": 0, "CLASSIFICATION_TYPE": "U", "NORAD_CAT_ID": 31754, "ELEMENT_SET_NO": 999, "REV_AT_EPOCH": 97140, "BSTAR": 0.00087727492, "MEAN_MOTION_DOT": 2.891e-05, "MEAN_MOTION_DDOT": 0}, "tle": {"line1": "1 31754U 99025CFD 25357.18644766  .00002891  00000+0  87727-3 0  9992", "line2": "2 31754  99.0415 323.0958 0049520 186.4072 173.6488 14.42319169971406"}}, "geometry": {"type": "Point", "coordinates": [143.9093460939638, 1.6504382990463176]}}, {"type": "Feature", "properties": {"norad_id": 31757, "name": "FENGYUN 1C DEB", "group": "fengyun-1c-debris", "lat": -81.20557156834259, "lon": 113.54299008194921, "alt_km": 999.979600896072, "timestamp": "2025-12-23T16:57:12.636795+00:00", "meta": {"OBJECT_NAME": "FENGYUN 1C DEB", "OBJECT_ID": "1999-025CFG", "EPOCH": "2025-12-19T19:34:47.252352", "MEAN_MOTION": 14.07925739, "ECCENTRICITY": 0.02177667, "INCLINATION": 98.7671, "RA_OF_ASC_NODE": 15.6869, "ARG_OF_PERICENTER": 64.1846, "MEAN_ANOMALY": 298.1612, "EPHEMERIS_TYPE": 0, "CLASSIFICATION_TYPE": "U", "NORAD_CAT_ID": 31757, "ELEMENT_SET_NO": 999, "REV_AT_EPOCH": 63981, "BSTAR": 9.3425243e-05, "MEAN_MOTION_DOT": 1.55e-06, "MEAN_MOTION_DDOT": 0}, "tle": {"line1": "1 31757U 99025CFG 25353.81582468  .00000155  00000+0  93425-4 0  9995", "line2": "2 31757  98.7671  15.6869 0217766  64.1846 298.1612 14.07925739639819"}}, "geometry": {"type": "Point", "coordinates": [113.54299008194921, -81.20557156834259]}}, {"type": "Feature", "properties": {"norad_id": 31758, "name": "FENGYUN 1C DEB", "group": "fengyun-1c-debris", "lat": 58.024345520238974, "lon": -6.924032547138283, "alt_km": 519.4501012490618, "timestamp": "2025-12-23T16:57:12.636805+00:00", "meta": {"OBJECT_NAME": "FENGYUN 1C DEB", "OBJECT_ID": "1999-025CFH", "EPOCH": "2025-12-20T18:45:49.222944", "MEAN_MOTION": 14.42196591, "ECCENTRICITY": 0.03173131, "INCLINATION": 98.0588, "RA_OF_ASC_NODE": 3.4255, "ARG_OF_PERICENTER": 65.8513, "MEAN_ANOMALY": 297.5511, "EPHEMERIS_TYPE": 0, "CLASSIFICATION_TYPE": "U", "NORAD_CAT_ID": 31758, "ELEMENT_SET_NO": 999, "REV_AT_EPOCH": 94316, "BSTAR": 0.001401927, "MEAN_MOTION_DOT": 8.454e-05, "MEAN_MOTION_DDOT": 0}, "tle": {"line1": "1 31758U 99025CFH 25354.78181971  .00008454  00000+0  14019-2 0  9997", "line2": "2 31758  98.0588   3.4255 0317313  65.8513 297.5511 14.42196591943164"}}, "geometry": {"type": "Point", "coordinates": [-6.924032547138283, 58.024345520238974]}}, {"type": "Feature", "properties": {"norad_id": 31760, "name": "FENGYUN 1C DEB", "group": "fengyun-1c-debris", "lat": -50.93235032087772, "lon": 107.652919438742, "alt_km": 827.8797796126591, "timestamp": "2025-12-23T16:57:12.636816+00:00", "meta": {"OBJECT_NAME": "FENGYUN 1C DEB", "OBJECT_ID": "1999-025CFK", "EPOCH": "2025-12-23T05:26:41.778816", "MEAN_MOTION": 14.30214072, "ECCENTRICITY": 0.0053119, "INCLINATION": 99.2536, "RA_OF_ASC_NODE": 95.5573, "ARG_OF_PERICENTER": 167.4386, "MEAN_ANOMALY": 192.8132, "EPHEMERIS_TYPE": 0, "CLASSIFICATION_TYPE": "U", "NORAD_CAT_ID": 31760, "ELEMENT_SET_NO": 999, "REV_AT_EPOCH": 96282, "BSTAR": 0.00070722511, "MEAN_MOTION_DOT": 1.812e-05, "MEAN_MOTION_DDOT": 0}, "tle": {"line1": "1 31760U 99025CFK 25357.22687244  .00001812  00000+0  70723-3 0  9992", "line2": "2 31760  99.2536  95.5573 0053119 167.4386 192.8132 14.30214072962828"}}, "geometry": {"type": "Point", "coordinates": [107.652919438742, -50.93235032087772]}}, {"type": "Feature", "properties": {"norad_id": 31761, "name": "FENGYUN 1C DEB", "group": "fengyun-1c-debris", "lat": -2.231142074172138, "lon": 40.74492908822136, "alt_km": 656.7027297686182, "timestamp": "2025-12-23T16:57:12.636830+00:00", "meta": {"OBJECT_NAME": "FENGYUN 1C DEB", "OBJECT_ID": "1999-025CFL", "EPOCH": "2025-12-22T21:13:42.978144", "MEAN_MOTION": 14.03597534, "ECCENTRICITY": 0.0471142, "INCLINATION": 98.6335, "RA_OF_ASC_NODE": 220.3003, "ARG_OF_PERICENTER": 234.743, "MEAN_ANOMALY": 120.8795, "EPHEMERIS_TYPE": 0, "CLASSIFICATION_TYPE": "U", "NORAD_CAT_ID": 31761, "ELEMENT_SET_NO": 999, "REV_AT_EPOCH": 58253, "BSTAR": 0.0019114, "MEAN_MOTION_DOT": 8.113e-05, "MEAN_MOTION_DDOT": 0}, "tle": {"line1": "1 31761U 99025CFL 25356.88452521  .00008113  00000+0  19114-2 0  9999", "line2": "2 31761  98.6335 220.3003 0471142 234.7430 120.8795 14.03597534582532"}}, "geometry": {"type": "Point", "coordinates": [40.74492908822136, -2.231142074172138]}}, {"type": "Feature", "properties": {"norad_id": 31763, "name": "FENGYUN 1C DEB", "group": "fengyun-1c-debris", "lat": -80.67604498523845, "lon": 170.52324210143496, "alt_km": 1311.0791127367675, "timestamp": "2025-12-23T16:57:12.636841+00:00", "meta": {"OBJECT_NAME": "FENGYUN 1C DEB", "OBJECT_ID": "1999-025CFN", "EPOCH": "2025-12-21T06:49:14.973312", "MEAN_MOTION": 13.50345592, "ECCENTRICITY": 0.05465035, "INCLINATION": 98.521, "RA_OF_ASC_NODE": 102.5013, "ARG_OF_PERICENTER": 47.4661, "MEAN_ANOMALY": 342.8081, "EPHEMERIS_TYPE": 0, "CLASSIFICATION_TYPE": "U", "NORAD_CAT_ID": 31763, "ELEMENT_SET_NO": 999, "REV_AT_EPOCH": 91121, "BSTAR": 0.00047885148, "MEAN_MOTION_DOT": 7.49e-06, "MEAN_MOTION_DDOT": 0}, "tle": {"line1": "1 31763U 99025CFN 25355.28420108  .00000749  00000+0  47885-3 0  9994", "line2": "2 31763  98.5210 102.5013 0546503  47.4661 342.8081 13.50345592911217"}}, "geometry": {"type": "Point", "coordinates": [170.52324210143496, -80.67604498523845]}}, {"type": "Feature", "properties": {"norad_id": 31766, "name": "FENGYUN 1C DEB", "group": "fengyun-1c-debris", "lat": -80.93581446889195, "lon": 71.86245982351868, "alt_km": 830.7363772207191, "timestamp": "2025-12-23T16:57:12.636851+00:00", "meta": {"OBJECT_NAME": "FENGYUN 1C DEB", "OBJECT_ID": "1999-025CFR", "EPOCH": "2025-12-22T05:29:01.188672", "MEAN_MOTION": 14.05283405, "ECCENTRICITY": 0.00734706, "INCLINATION": 98.8171, "RA_OF_ASC_NODE": 353.7923, "ARG_OF_PERICENTER": 264.1767, "MEAN_ANOMALY": 95.1022, "EPHEMERIS_TYPE": 0, "CLASSIFICATION_TYPE": "U", "NORAD_CAT_ID": 31766, "ELEMENT_SET_NO": 999, "REV_AT_EPOCH": 64219, "BSTAR": 0.00016407086, "MEAN_MOTION_DOT": 2.28e-06, "MEAN_MOTION_DDOT": 0}, "tle": {"line1": "1 31766U 99025CFR 25356.22848598  .00000228  00000+0  16407-3 0  9997", "line2": "2 31766  98.8171 353.7923 0073470 264.1767  95.1022 14.05283405642198"}}, "geometry": {"type": "Point", "coordinates": [71.86245982351868, -80.93581446889195]}}, {"type": "Feature", "properties": {"norad_id": 31767, "name": "FENGYUN 1C DEB", "group": "fengyun-1c-debris", "lat": -51.051688293481355, "lon": -163.98220266761922, "alt_km": 912.9825117324071, "timestamp": "2025-12-23T16:57:12.636861+00:00", "meta": {"OBJECT_NAME": "FENGYUN 1C DEB", "OBJECT_ID": "1999-025CFS", "EPOCH": "2025-12-20T13:23:06.950112", "MEAN_MOTION": 14.04956804, "ECCENTRICITY": 0.0041505, "INCLINATION": 98.8209, "RA_OF_ASC_NODE": 24.0328, "ARG_OF_PERICENTER": 48.452, "MEAN_ANOMALY": 106.7669, "EPHEMERIS_TYPE": 0, "CLASSIFICATION_TYPE": "U", "NORAD_CAT_ID": 31767, "ELEMENT_SET_NO": 999, "REV_AT_EPOCH": 94935, "BSTAR": 0.00023026, "MEAN_MOTION_DOT": 3.31e-06, "MEAN_MOTION_DDOT": 0}, "tle": {"line1": "1 31767U 99025CFS 25354.55771933  .00000331  00000+0  23026-3 0  9990", "line2": "2 31767  98.8209  24.0328 0041505  48.4520 106.7669 14.04956804949355"}}, "geometry": {"type": "Point", "coordinates": [-163.98220266761922, -51.051688293481355]}}]}